YOTSUBA-KULOVER         
1 65941U 98067XN  26047.59579969  .00149564  00000+0  10540-2 0  9993
2 65941  51.6251 166.0340 0004799 314.6115  45.4492 15.73086327 20177
BOTAN                   
1 65942U 98067XP  26047.51979239  .00495672  10514-3  15502-2 0  9992
2 65942  51.6162 161.7071 0008996 335.4040  24.6536 15.90850823 20226
E-KAGAKU-1              
1 65943U 98067XQ  26047.59721692  .00146338  00000+0  10382-2 0  9997
2 65943  51.6276 166.0568 0004789 328.1831  31.8878 15.72941603 20175
HRC MONOBLOCK CAMERA    
1 66052U 98067XR  26047.57427128  .00048848  00000+0  59582-3 0  9997
2 66052  51.6281 171.9106 0002145  13.3366 346.7683 15.59974289 19098
HTV-X1                  
1 66174U 25241A   26047.53756625  .00009593  00000+0  18404-3 0  9991
2 66174  51.6319 176.9116 0011020 104.8338 255.3872 15.48645386   511
SZ-21 MODULE            
1 66515U 25246C   26047.15889357  .00036256  00000+0  33420-3 0  9993
2 66515  41.4767 335.7274 0002065 297.2622  62.8008 15.66881556 14693
SHENZHOU-22             
1 66645U 25272A   26047.46371112  .00029005  00000+0  35509-3 0  9999
2 66645  41.4685 337.2223 0004139 115.2170 244.9098 15.59725445267641
SOYUZ-MS 28             
1 66664U 25275A   26047.53756625  .00009593  00000+0  18404-3 0  9992
2 66664  51.6319 176.9116 0011020 104.8338 255.3872 15.48645386  1280
DUPLEX                  
1 66906U 98067XS  26047.57737137  .00037838  00000+0  56346-3 0  9991
2 66906  51.6294 174.9313 0001429  70.1802 289.9343 15.54737252 11841
ISS OBJECT XT           
1 66907U 98067XT  26047.58868930  .00119926  00000+0  12603-2 0  9995
2 66907  51.6273 172.7525 0002477 318.2214  41.8591 15.63436721 11877
ISS OBJECT XU           
1 66908U 98067XU  26047.39618633  .00124758  00000+0  13100-2 0  9990
2 66908  51.6260 173.7148 0002463 325.1489  34.9344 15.63439495 11849
SILVERSAT               
1 66909U 98067XV  26047.55492295  .00145375  00000+0  14211-2 0  9995
2 66909  51.6271 172.5261 0003273 318.3444  41.7301 15.65168033 11871
